[
    {
        "Altitude(m)": 610405.2829661105,
        "Argument of Periapsis(deg)": 0.0,
        "Eccentricity": 0.0,
        "Inclination(deg)": 60.0,
        "Latitude(deg)": 52.111161043426,
        "Longitude(deg)": -42.52266144985112,
        "Mean Anomaly(deg)": -245.4545,
        "RAAN(deg)": 285.0,
        "Satellite Name": "Test1 1261",
        "Satellite Number": 1261,
        "Semi-Major Axis(m)": 6980739.136638005,
        "Time(s)": 0
    },
    {
        "Altitude(m)": 610321.8561256364,
        "Argument of Periapsis(deg)": 0.00010418945913296404,
        "Eccentricity": 0.0,
        "Inclination(deg)": 60.0,
        "Latitude(deg)": 51.74587685403004,
        "Longitude(deg)": -41.753768452785536,
        "Mean Anomaly(deg)": -244.83439385453818,
        "RAAN(deg)": 284.9995799508602,
        "Satellite Name": "Test1 1261",
        "Satellite Number": 1261,
        "Semi-Major Axis(m)": 6980739.136638005,
        "Time(s)": 10
    }
]